{"fetched_at":"2026-03-29T16:36:15Z","count":15609,"tles":[{"name":"STARLINK-5200","line1":"1 54103U 22136BE  26087.80513871  .00000720  00000+0  63354-4 0  9996","line2":"2 54103  53.2171 228.0935 0001386 100.7556 259.3592 15.08836007190154","category":"Starlink"}]}